OBJECT_NAME,OBJECT_ID,EPOCH,MEAN_MOTION,ECCENTRICITY,INCLINATION,RA_OF_ASC_NODE,ARG_OF_PERICENTER,MEAN_ANOMALY,EPHEMERIS_TYPE,CLASSIFICATION_TYPE,NORAD_CAT_ID,ELEMENT_SET_NO,REV_AT_EPOCH,BSTAR,MEAN_MOTION_DOT,MEAN_MOTION_DDOT
SAUDISAT 1C (SO-50),2002-058C,2026-07-12T18:41:57.391872,14.83095806,.00746,64.5517,49.8013,257.7275,101.5471,0,U,27607,999,26825,.64839E-4,.397E-5,0
SAUDISAT 2,2004-025F,2026-07-12T13:57:01.836000,14.56697427,.0023929,98.5519,194.2206,216.4275,143.5295,0,U,28371,999,16944,.35825E-4,.111E-5,0
SAUDISAT 3,2007-012B,2026-07-12T19:51:27.650304,14.71439581,.0015444,98.1466,144.2466,141.7880,218.4425,0,U,31118,999,3151,.26287E-4,.112E-5,0
PISAT,2016-059B,2026-07-12T13:13:06.909888,14.69026784,.0030347,97.8189,192.9148,122.9134,237.4998,0,U,41784,999,52346,.87652E-4,.47E-5,0
FLYING LAPTOP,2017-042G,2026-07-12T20:20:07.527840,15.01304050,.0019817,97.4789,348.4132,39.9468,320.3210,0,U,42831,999,49030,.18449E-3,.2325E-4,0
SALSAT,2020-068K,2026-07-11T12:58:29.571456,15.30139435,.00088233,97.8855,197.0941,206.5203,153.5586,0,U,46495,999,31908,.15528118E-3,.4447E-4,0
